COSMOS 2532 (RODNIK-S *)
1 43753U 18097C   26181.87003138  .00000153  00000+0  10329-2 0  9990
2 43753  82.5114 213.6317 0018656  31.5475 328.6719 12.42910633343972
MINXSS-2                
1 43758U 18099A   26181.80176044  .00042467  00000+0  81518-3 0  9990
2 43758  97.4534 258.4929 0007801 205.0770 155.0103 15.47826286416237
SIRION PATHFINDER-2     
1 43759U 18099B   26181.59313485  .00004121  00000+0  22624-3 0  9997
2 43759  97.4245 230.3322 0007208 247.6548 112.3921 15.14662292414656
AISTECHSAT 2            
1 43768U 18099L   26181.09619549  .00004853  00000+0  25915-3 0  9990
2 43768  97.4285 228.8478 0003247 241.3967 118.6939 15.15573376414236
FOX-1CLIFF (AO-95)      
1 43770U 18099N   26181.64379135  .00011579  00000+0  43935-3 0  9993
2 43770  97.4380 241.8422 0006999 303.0257  57.0309 15.26988852415277
RANGE-A                 
1 43773U 18099R   26180.93854315  .00005124  00000+0  28962-3 0  9997
2 43773  97.3957 223.1446 0008735 307.9528  52.0914 15.13492933414421
SNUSAT-2                
1 43782U 18099AA  26181.61442181  .00008218  00000+0  36210-3 0  9999
2 43782  97.4053 234.7926 0008863 242.6370 117.3965 15.22035755415070
SNUGLITE                
1 43784U 18099AC  26181.57459507  .00011606  00000+0  43435-3 0  9998
2 43784  97.3860 235.7243 0002103 205.8124 154.3011 15.27462325415366
ITASAT                  
1 43786U 18099AE  26181.59069529  .00006267  00000+0  30036-3 0  9993
2 43786  97.4020 232.8356 0010949 309.6889  50.3380 15.19218577414944
EAGLET-I                
1 43790U 18099AJ  26181.67692497  .00004434  00000+0  25431-3 0  9990
2 43790  97.4225 230.9882 0009590 302.6407  57.3898 15.13038116414379
ESEO                    
1 43792U 18099AL  26181.55071462  .00001035  00000+0  78482-4 0  9991
2 43792  97.3967 218.3673 0010122 291.4741  68.5406 15.04286361413814
THEA                    
1 43796U 18099AQ  26181.62904431  .00017907  00000+0  52115-3 0  9993
2 43796  97.4440 251.4549 0006677 226.2824 133.7867 15.35461053414750
ASTROCAST 0.1           
1 43798U 18099AS  26180.78618291  .00033146  00000+0  58304-3 0  9996
2 43798  97.4379 259.6823 0005694 168.1650 191.9736 15.50394855416381
JY1SAT (JO-97)          
1 43803U 18099AX  26181.14334601  .00015212  00000+0  46343-3 0  9998
2 43803  97.4129 244.0253 0005404 207.7837 152.3117 15.34057952415617
SUOMI-100               
1 43804U 18099AY  26181.62622318  .00012072  00000+0  43430-3 0  9992
2 43804  97.4180 241.9713 0009123 224.1707 135.8805 15.28719966415470
CENTAURI-1              
1 43809U 18099BD  26181.60131861  .00005122  00000+0  26592-3 0  9991
2 43809  97.4214 233.0332 0012353 281.8919  78.0929 15.16494505414533
GLOBAL-2                
1 43812U 18099BG  26181.53859398  .00002724  00000+0  17726-3 0  9993
2 43812  97.3545 217.4967 0007622 106.2801 253.9267 15.08747720413928
SEAHAWK-1               
1 43820U 18099BQ  26181.08040499  .00009492  00000+0  40608-3 0  9990
2 43820  97.3952 233.3702 0006607 258.9736 101.0757 15.23012255414492
SAUDISAT 5A             
1 43831U 18102A   26181.85065684  .00005697  00000+0  20969-3 0  9996
2 43831  97.3062 243.1687 0011266  87.7862 272.4667 15.28186994417765
SAUDISAT 5B             
1 43833U 18102C   26181.86723615  .00005624  00000+0  20546-3 0  9995
2 43833  97.3172 246.2795 0011993  89.4156 270.8458 15.28437102417888
ISAT                    
1 43879U 18111D   26181.76848315  .00105583  00000+0  95110-3 0  9993
2 43879  97.5868 118.0584 0004705 161.2154 198.9281 15.67846888413297
UWE-4                   
1 43880U 18111E   26181.60875191  .00031984  00000+0  63475-3 0  9992
2 43880  97.5854 110.6256 0004324 267.4417  92.6337 15.46943999412857
D-STAR ONE (SPARROW)    
1 43881U 18111F   26181.39765818  .00186399  00000+0  10453-2 0  9991
2 43881  97.6106 123.5335 0005445 139.6981 220.4690 15.78756171413450
JILIN-1 09              
1 43943U 19005B   26181.80204476  .00005400  00000+0  24929-3 0  9994
2 43943  97.4749 276.6489 0003373  67.5312 292.6280 15.20631089411210
JILIN-1 10              
1 43946U 19005E   26181.76763064  .00005851  00000+0  23123-3 0  9990
2 43946  97.4798 280.5729 0007182 221.7162 138.3529 15.25864004411387
EGYPTSAT-A (MISRSAT-A)  
1 44047U 19008A   26181.87141049  .00000291  00000+0  53796-4 0  9994
2 44047  98.0194 246.4488 0001543  98.4437 261.6945 14.72321173395254
EMISAT                  
1 44078U 19018A   26181.86742988  .00000063  00000+0  31517-4 0  9991
2 44078  98.4645 240.5923 0018426 173.0464 187.0985 14.43642845382037
JILIN-1 GAOFEN 3A       
1 44312U 19032C   26181.77137832  .00011043  00000+0  34959-3 0  9996
2 44312  44.9748 282.1598 0005582   6.8197 353.2763 15.32922295389928
