OBJECT_NAME,OBJECT_ID,EPOCH,MEAN_MOTION,ECCENTRICITY,INCLINATION,RA_OF_ASC_NODE,ARG_OF_PERICENTER,MEAN_ANOMALY,EPHEMERIS_TYPE,CLASSIFICATION_TYPE,NORAD_CAT_ID,ELEMENT_SET_NO,REV_AT_EPOCH,BSTAR,MEAN_MOTION_DOT,MEAN_MOTION_DDOT
COSMOS 2532 (RODNIK-S 18),2018-097C,2026-06-30T20:52:50.711232,12.42910633,.0018656,82.5114,213.6317,31.5475,328.6719,0,U,43753,999,34397,.10329E-2,.153E-5,0
MINXSS-2,2018-099A,2026-06-30T19:14:32.102016,15.47826286,.0007801,97.4534,258.4929,205.0770,155.0103,0,U,43758,999,41623,.81518E-3,.42467E-3,0
SIRION PATHFINDER-2,2018-099B,2026-06-30T14:14:06.851040,15.14662292,.0007208,97.4245,230.3322,247.6548,112.3921,0,U,43759,999,41465,.22624E-3,.4121E-4,0
AISTECHSAT 2,2018-099L,2026-06-30T02:18:31.290336,15.15573376,.00032479,97.4285,228.8478,241.3967,118.6939,0,U,43768,999,41423,.25915289E-3,.4853E-4,0
FOX-1CLIFF (AO-95),2018-099N,2026-06-30T15:27:03.572640,15.26988852,.0006999,97.4380,241.8422,303.0257,57.0309,0,U,43770,999,41527,.43935E-3,.11579E-3,0
RANGE-A,2018-099R,2026-06-29T22:31:30.128160,15.13492933,.00087356,97.3957,223.1446,307.9528,52.0914,0,U,43773,999,41442,.28961688E-3,.5124E-4,0
SNUSAT-2,2018-099AA,2026-06-30T14:44:46.044384,15.22035755,.0008863,97.4053,234.7926,242.6370,117.3965,0,U,43782,999,41507,.3621E-3,.8218E-4,0
SNUGLITE,2018-099AC,2026-06-30T13:47:25.014048,15.27462325,.0002103,97.3860,235.7243,205.8124,154.3011,0,U,43784,999,41536,.43435E-3,.11606E-3,0
ITASAT,2018-099AE,2026-06-30T14:10:36.073056,15.19218577,.0010949,97.4020,232.8356,309.6889,50.3380,0,U,43786,999,41494,.30036E-3,.6267E-4,0
EAGLET-I,2018-099AJ,2026-06-30T16:14:46.317408,15.13038116,.000959,97.4225,230.9882,302.6407,57.3898,0,U,43790,999,41437,.25431E-3,.4434E-4,0
ESEO,2018-099AL,2026-06-30T13:13:01.743168,15.04286361,.0010122,97.3967,218.3673,291.4741,68.5406,0,U,43792,999,41381,.78482E-4,.1035E-4,0
THEA,2018-099AQ,2026-06-30T15:05:49.428384,15.35461053,.0006677,97.4440,251.4549,226.2824,133.7867,0,U,43796,999,41475,.52115E-3,.17907E-3,0
ASTROCAST 0.1,2018-099AS,2026-06-29T18:52:06.203424,15.50394855,.00056944,97.4379,259.6823,168.1650,191.9736,0,U,43798,999,41638,.58303763E-3,.33146E-3,0
JY1SAT (JO-97),2018-099AX,2026-06-30T03:26:25.095264,15.34057952,.0005404,97.4129,244.0253,207.7837,152.3117,0,U,43803,999,41561,.4634271E-3,.15212E-3,0
SUOMI-100,2018-099AY,2026-06-30T15:01:45.682752,15.28719966,.0009123,97.4180,241.9713,224.1707,135.8805,0,U,43804,999,41547,.4343E-3,.12072E-3,0
CENTAURI-1,2018-099BD,2026-06-30T14:25:53.927904,15.16494505,.0012353,97.4214,233.0332,281.8919,78.0929,0,U,43809,999,41453,.26592E-3,.5122E-4,0
GLOBAL-2,2018-099BG,2026-06-30T12:55:34.519872,15.08747720,.0007622,97.3545,217.4967,106.2801,253.9267,0,U,43812,999,41392,.17726E-3,.2724E-4,0
SEAHAWK-1,2018-099BQ,2026-06-30T01:55:46.991136,15.23012255,.00066075,97.3952,233.3702,258.9736,101.0757,0,U,43820,999,41449,.40608225E-3,.9492E-4,0
SAUDISAT 5A,2018-102A,2026-06-30T20:24:56.750976,15.28186994,.0011266,97.3062,243.1687,87.7862,272.4667,0,U,43831,999,41776,.20969E-3,.5697E-4,0
SAUDISAT 5B,2018-102C,2026-06-30T20:48:49.203360,15.28437102,.0011993,97.3172,246.2795,89.4156,270.8458,0,U,43833,999,41788,.20546E-3,.5624E-4,0
ISAT,2018-111D,2026-06-30T18:26:36.944160,15.67846888,.0004705,97.5868,118.0584,161.2154,198.9281,0,U,43879,999,41329,.9511E-3,.105583E-2,0
UWE-4,2018-111E,2026-06-30T14:36:36.165024,15.46943999,.0004324,97.5854,110.6256,267.4417,92.6337,0,U,43880,999,41285,.63475E-3,.31984E-3,0
D-STAR ONE (SPARROW),2018-111F,2026-06-30T09:32:37.666752,15.78756171,.00054455,97.6106,123.5335,139.6981,220.4690,0,U,43881,999,41345,.10452692E-2,.186399E-2,0
JILIN-1 09,2019-005B,2026-06-30T19:14:56.667264,15.20631089,.0003373,97.4749,276.6489,67.5312,292.6280,0,U,43943,999,41121,.24929E-3,.54E-4,0
JILIN-1 10,2019-005E,2026-06-30T18:25:23.287296,15.25864004,.0007182,97.4798,280.5729,221.7162,138.3529,0,U,43946,999,41138,.23123E-3,.5851E-4,0
EGYPTSAT-A (MISRSAT-A),2019-008A,2026-06-30T20:54:49.866336,14.72321173,.0001543,98.0194,246.4488,98.4437,261.6945,0,U,44047,999,39525,.53796E-4,.291E-5,0
EMISAT,2019-018A,2026-06-30T20:49:05.941632,14.43642845,.0018426,98.4645,240.5923,173.0464,187.0985,0,U,44078,999,38203,.31517E-4,.63E-6,0
JILIN-1 GAOFEN 3A,2019-032C,2026-06-30T18:30:47.086848,15.32922295,.0005582,44.9748,282.1598,6.8197,353.2763,0,U,44312,999,38992,.34959E-3,.11043E-3,0
